NOAA 16 DEB             
1 42428U 00055TY  24110.54376140  .00005913  00000+0  26581-2 0  9999
2 42428  98.8942 228.0287 0025078 352.2122   7.8662 14.22551043378385
